NORAD_CAT_ID,OBJECT_NAME,OBJECT_TYPE,EPOCH,MEAN_MOTION,ECCENTRICITY,INCLINATION,RA_OF_ASC_NODE,ARG_OF_PERICENTER,MEAN_ANOMALY,BSTAR,MEAN_MOTION_DOT,MEAN_MOTION_DDOT,TLE_LINE0,TLE_LINE1,TLE_LINE2,SEMIMAJOR_AXIS,PERIOD,APOGEE,PERIGEE,DECAYED
52336.0,STARLINK-3823,PAYLOAD,2023-07-09 05:21:01,15.08835349,7.8e-05,53.2173,263.4695,98.9087,261.1994,-2.8916e-05,-7.48e-06,0.0,0 STARLINK-3823,1 52336U 22045F   23190.22292959 -.00000748  00000-0 -28916-4 0  9998,2 52336  53.2173 263.4695 0000780  98.9087 261.1994 15.08835349 68533,6917.895,95.438,540.299,539.22,0.0
52336.0,STARLINK-3823,PAYLOAD,2023-07-10 11:33:20,15.08841399,8.6e-05,53.2169,257.8205,90.4131,269.696,0.00010553,1.392e-05,0.0,0 STARLINK-3823,1 52336U 22045F   23191.48148479  .00001392  00000-0  10553-3 0  9995,2 52336  53.2169 257.8205 0000860  90.4131 269.6960 15.08841399 68727,6917.876,95.437,540.336,539.146,0.0
52336.0,STARLINK-3823,PAYLOAD,2023-07-11 03:27:12,15.08833108,8.87e-05,53.2167,254.8464,84.3775,275.7319,9.1187e-05,1.164e-05,0.0,0 STARLINK-3823,1 52336U 22045F   23192.14389215  .00001164  00000-0  91187-4 0  9994,2 52336  53.2167 254.8464 0000887  84.3775 275.7319 15.08833108 68820,6917.901,95.438,540.38,539.153,0.0
52336.0,STARLINK-3823,PAYLOAD,2023-07-12 04:53:22,15.08840164,9.92e-05,53.2177,250.0882,88.8908,271.2197,4.4825e-05,4.26e-06,0.0,0 STARLINK-3823,1 52336U 22045F   23193.20373185  .00000426  00000-0  44825-4 0  9998,2 52336  53.2177 250.0882 0000992  88.8908 271.2197 15.08840164 68989,6917.88,95.438,540.431,539.059,0.0
52336.0,STARLINK-3823,PAYLOAD,2023-07-13 11:05:42,15.08839719,0.0001057,53.2175,244.4378,103.2885,256.8225,4.7598e-05,4.7e-06,0.0,0 STARLINK-3823,1 52336U 22045F   23194.46229224  .00000470  00000-0  47598-4 0  9990,2 52336  53.2175 244.4378 0001057 103.2885 256.8225 15.08839719 69170,6917.881,95.438,540.477,539.015,0.0
52336.0,STARLINK-3823,PAYLOAD,2023-07-14 20:28:47,15.08840376,0.0001005,53.2171,238.1941,87.4603,272.6505,8.6533e-05,1.09e-05,0.0,0 STARLINK-3823,1 52336U 22045F   23195.85333320  .00001090  00000-0  86533-4 0  9998,2 52336  53.2171 238.1941 0001005  87.4603 272.6505 15.08840376 69387,6917.879,95.438,540.439,539.049,0.0
52336.0,STARLINK-3823,PAYLOAD,2023-07-16 02:41:07,15.08839862,0.0001052,53.2164,232.547,59.0148,301.0947,2.9543e-05,1.82e-06,0.0,0 STARLINK-3823,1 52336U 22045F   23197.11189645  .00000182  00000-0  29543-4 0  9997,2 52336  53.2164 232.5470 0001052  59.0148 301.0947 15.08839862 69571,6917.881,95.438,540.474,539.018,0.0
52336.0,STARLINK-3823,PAYLOAD,2023-07-17 08:53:27,15.08844578,9.33e-05,53.2166,226.894,86.1911,273.9188,3.0972e-05,2.05e-06,0.0,0 STARLINK-3823,1 52336U 22045F   23198.37045240  .00000205  00000-0  30972-4 0  9992,2 52336  53.2166 226.8940 0000933  86.1911 273.9188 15.08844578 69762,6917.866,95.437,540.377,539.086,0.0
52336.0,STARLINK-3823,PAYLOAD,2023-07-18 02:22:42,15.08833489,0.0001016,53.2175,223.624,87.6798,272.4311,5.7165e-05,6.22e-06,0.0,0 STARLINK-3823,1 52336U 22045F   23199.09909901  .00000622  00000-0  57165-4 0  9991,2 52336  53.2175 223.6240 0001016  87.6798 272.4311 15.08833489 69875,6917.9,95.438,540.468,539.062,0.0
52336.0,STARLINK-3823,PAYLOAD,2023-07-19 10:10:24,15.08837726,0.0001071,53.2171,217.6769,86.7844,273.327,3.1335e-05,2.11e-06,0.0,0 STARLINK-3823,1 52336U 22045F   23200.42390041  .00000211  00000-0  31335-4 0  9995,2 52336  53.2171 217.6769 0001071  86.7844 273.3270 15.08837726 70079,6917.887,95.438,540.493,539.011,0.0
52336.0,STARLINK-3823,PAYLOAD,2023-07-21 09:51:59,15.08840738,0.0001056,53.2167,208.7543,83.5159,276.5954,6.4621e-05,7.41e-06,0.0,0 STARLINK-3823,1 52336U 22045F   23202.41109954  .00000741  00000-0  64621-4 0  9999,2 52336  53.2167 208.7543 0001056  83.5159 276.5954 15.08840738 70376,6917.878,95.438,540.474,539.013,0.0
52336.0,STARLINK-3823,PAYLOAD,2023-07-23 00:01:15,15.08835212,0.0001174,53.2159,201.6178,79.1887,280.9238,4.6054e-05,4.45e-06,0.0,0 STARLINK-3823,1 52336U 22045F   23204.00086847  .00000445  00000-0  46054-4 0  9992,2 52336  53.2159 201.6178 0001174  79.1887 280.9238 15.08835212 70615,6917.895,95.438,540.572,538.948,0.0
52336.0,STARLINK-3823,PAYLOAD,2023-07-25 09:15:07,15.08841724,9.74e-05,53.2176,190.9123,99.4186,260.6916,3.083e-05,2.03e-06,0.0,0 STARLINK-3823,1 52336U 22045F   23206.38550516  .00000203  00000-0  30830-4 0  9991,2 52336  53.2176 190.9123 0000974  99.4186 260.6916 15.08841724 70970,6917.875,95.437,540.414,539.066,0.0
52336.0,STARLINK-3823,PAYLOAD,2023-07-26 07:30:31,15.08836854,0.0001235,53.2171,186.7501,87.2876,272.8258,6.0784e-05,6.8e-06,0.0,0 STARLINK-3823,1 52336U 22045F   23207.31286596  .00000680  00000-0  60784-4 0  9999,2 52336  53.2171 186.7501 0001235  87.2876 272.8258 15.08836854 71119,6917.89,95.438,540.609,538.901,0.0
52336.0,STARLINK-3823,PAYLOAD,2023-07-27 07:21:18,15.08839124,0.0001095,53.2174,182.2896,92.4152,267.6966,5.3302e-05,5.61e-06,0.0,0 STARLINK-3823,1 52336U 22045F   23208.30646569  .00000561  00000-0  53302-4 0  9995,2 52336  53.2174 182.2896 0001095  92.4152 267.6966 15.08839124 71266,6917.883,95.438,540.506,538.991,0.0
52336.0,STARLINK-3823,PAYLOAD,2023-07-27 21:39:47,15.0883607,0.000141,53.2176,179.6159,79.0107,281.1044,1.4833e-05,-5.2e-07,0.0,0 STARLINK-3823,1 52336U 22045F   23208.90263082 -.00000052  00000-0  14833-4 0  9998,2 52336  53.2176 179.6159 0001410  79.0107 281.1044 15.08836070 71357,6917.892,95.438,540.733,538.782,0.0
52336.0,STARLINK-3823,PAYLOAD,2023-07-27 23:15:10,15.08834007,0.0001486,53.2171,179.3147,84.1975,275.9186,-1.114e-05,-4.65e-06,0.0,0 STARLINK-3823,1 52336U 22045F   23208.96887403 -.00000465  00000-0 -11140-4 0  9990,2 52336  53.2171 179.3147 0001486  84.1975 275.9186 15.08834007 71366,6917.899,95.438,540.792,538.736,0.0
52336.0,STARLINK-3823,PAYLOAD,2023-07-28 08:47:29,15.0883223,0.0001361,53.218,177.5317,88.8929,271.2219,-2.1107e-06,-3.21e-06,0.0,0 STARLINK-3823,1 52336U 22045F   23209.36631573 -.00000321  00000-0 -21107-5 0  9996,2 52336  53.2180 177.5317 0001361  88.8929 271.2219 15.08832230 71426,6917.904,95.438,540.711,538.828,0.0
52336.0,STARLINK-3823,PAYLOAD,2023-07-29 02:16:43,15.08756444,0.0001196,53.2178,174.261,117.4618,242.6496,0.0011305,0.00017709,0.0,0 STARLINK-3823,1 52336U 22045F   23210.09494475  .00017709  00000-0  11305-2 0  9998,2 52336  53.2178 174.2610 0001196 117.4618 242.6496 15.08756444 71536,6918.136,95.443,540.828,539.173,0.0
52336.0,STARLINK-3823,PAYLOAD,2023-07-29 07:02:52,15.08866322,0.0001042,53.2171,173.3687,85.3907,274.7204,-0.00014771,-2.64e-05,0.0,0 STARLINK-3823,1 52336U 22045F   23210.29366086 -.00002640  00000-0 -14771-3 0  9997,2 52336  53.2171 173.3687 0001042  85.3907 274.7204 15.08866322 71560,6917.8,95.436,540.386,538.944,0.0
52336.0,STARLINK-3823,PAYLOAD,2023-07-30 02:07:30,15.0883647,0.0001149,53.217,169.8007,86.7714,273.341,0.00012107,1.639e-05,0.0,0 STARLINK-3823,1 52336U 22045F   23211.08854969  .00001639  00000-0  12107-3 0  9993,2 52336  53.2170 169.8007 0001149  86.7714 273.3410 15.08836470 71682,6917.891,95.438,540.551,538.961,0.0
52336.0,STARLINK-3823,PAYLOAD,2023-07-30 06:53:39,15.08843502,0.0001181,53.2168,168.908,89.9299,270.1829,0.00014414,2.007e-05,0.0,0 STARLINK-3823,1 52336U 22045F   23211.28726450  .00002007  00000-0  14414-3 0  9991,2 52336  53.2168 168.9080 0001181  89.9299 270.1829 15.08843502 71716,6917.87,95.437,540.552,538.918,0.0
52336.0,STARLINK-3823,PAYLOAD,2023-07-31 01:58:17,15.08842028,0.0001238,53.2163,165.3385,95.9485,264.1649,9.5262e-06,-1.36e-06,0.0,0 STARLINK-3823,1 52336U 22045F   23212.08214844 -.00000136  00000-0  95262-5 0  9993,2 52336  53.2163 165.3385 0001238  95.9485 264.1649 15.08842028 71835,6917.874,95.437,540.596,538.883,0.0
52336.0,STARLINK-3823,PAYLOAD,2023-08-01 01:49:05,15.08830141,0.0001441,53.2185,160.8807,102.479,257.6363,4.1115e-05,3.66e-06,0.0,0 STARLINK-3823,1 52336U 22045F   23213.07575632  .00000366  00000-0  41115-4 0  9999,2 52336  53.2185 160.8807 0001441 102.4790 257.6363 15.08830141 71986,6917.911,95.438,540.772,538.779,0.0
52336.0,STARLINK-3823,PAYLOAD,2023-08-02 00:04:28,15.08841489,0.0001397,53.2175,156.7142,102.7387,257.3762,3.8751e-05,3.29e-06,0.0,0 STARLINK-3823,1 52336U 22045F   23214.00311192  .00000329  00000-0  38751-4 0  9993,2 52336  53.2175 156.7142 0001397 102.7387 257.3762 15.08841489 72120,6917.876,95.437,540.707,538.774,0.0
52336.0,STARLINK-3823,PAYLOAD,2023-08-03 01:30:39,15.088383,0.0001326,53.2182,151.958,82.2572,277.857,9.7507e-05,1.264e-05,0.0,0 STARLINK-3823,1 52336U 22045F   23215.06295522  .00001264  00000-0  97507-4 0  9991,2 52336  53.2182 151.9580 0001326  82.2572 277.8570 15.08838300 72280,6917.886,95.438,540.668,538.833,0.0
52336.0,STARLINK-3823,PAYLOAD,2023-08-03 04:41:25,15.08846626,0.0001292,53.2176,151.3645,94.8264,265.2876,0.00016048,2.268e-05,0.0,0 STARLINK-3823,1 52336U 22045F   23215.19542827  .00002268  00000-0  16048-3 0  9993,2 52336  53.2176 151.3645 0001292  94.8264 265.2876 15.08846626 72301,6917.86,95.437,540.619,538.831,0.0
52336.0,STARLINK-3823,PAYLOAD,2023-08-04 02:56:50,15.08834805,0.0001257,53.218,147.2001,91.8894,268.2242,-2.7265e-05,-7.22e-06,0.0,0 STARLINK-3823,1 52336U 22045F   23216.12280469 -.00000722  00000-0 -27265-4 0  9997,2 52336  53.2180 147.2001 0001257  91.8894 268.2242 15.08834805 72444,6917.896,95.438,540.631,538.892,0.0
52336.0,STARLINK-3823,PAYLOAD,2023-08-05 02:47:35,15.08856033,0.0001206,53.2173,142.7404,99.978,260.1348,0.00010287,1.35e-05,0.0,0 STARLINK-3823,1 52336U 22045F   23217.11638820  .00001350  00000-0  10287-3 0  9996,2 52336  53.2173 142.7404 0001206  99.9780 260.1348 15.08856033 72591,6917.831,95.437,540.531,538.862,0.0
52336.0,STARLINK-3823,PAYLOAD,2023-08-06 04:13:46,15.08849221,0.0001218,53.2171,137.982,93.4647,266.6484,0.00018003,2.579e-05,0.0,0 STARLINK-3823,1 52336U 22045F   23218.17622838  .00002579  00000-0  18003-3 0  9993,2 52336  53.2171 137.9820 0001218  93.4647 266.6484 15.08849221 72752,6917.852,95.437,540.56,538.875,0.0
